{
  "type": "FeatureCollection",
  "features": [
    {
      "type": "Feature",
      "properties": {
        "norad_id": 41026,
        "name": "YAOGAN-28",
        "group": "resource",
        "lat": 36.63733968872146,
        "lon": -41.21775343509244,
        "alt_km": 483.747811312458,
        "timestamp": "2025-12-21T18:54:58.150632+00:00",
        "meta_object_name": "YAOGAN-28",
        "meta_object_id": "2015-064A",
        "meta_epoch": "2025-12-21T15:08:30.250752",
        "meta_mean_motion": 15.24484726,
        "meta_eccentricity": 0.00126481,
        "meta_inclination": 97.2814,
        "meta_ra_of_asc_node": 133.173,
        "meta_arg_of_pericenter": 97.7741,
        "meta_mean_anomaly": 262.4933,
        "meta_ephemeris_type": 0,
        "meta_classification_type": "U",
        "meta_norad_cat_id": 41026,
        "meta_element_set_no": 999,
        "meta_rev_at_epoch": 56360,
        "meta_bstar": 0.00025731243,
        "meta_mean_motion_dot": 6.267e-05,
        "meta_mean_motion_ddot": 0,
        "tle_line1": "1 41026U 15064A   25355.63090568  .00006267  00000+0  25731-3 0  9997",
        "tle_line2": "2 41026  97.2814 133.1730 0012648  97.7741 262.4933 15.24484726563602"
      },
      "geometry": {
        "type": "Point",
        "coordinates": [
          -41.21775343509244,
          36.63733968872146
        ]
      }
    },
    {
      "type": "Feature",
      "properties": {
        "norad_id": 41038,
        "name": "YAOGAN-29",
        "group": "resource",
        "lat": -31.064162324779932,
        "lon": 23.861367764176467,
        "alt_km": 626.6165645599704,
        "timestamp": "2025-12-21T18:54:58.150643+00:00",
        "meta_object_name": "YAOGAN-29",
        "meta_object_id": "2015-069A",
        "meta_epoch": "2025-12-21T14:11:56.998752",
        "meta_mean_motion": 14.82891427,
        "meta_eccentricity": 5.525e-05,
        "meta_inclination": 98.0207,
        "meta_ra_of_asc_node": 18.7917,
        "meta_arg_of_pericenter": 171.5156,
        "meta_mean_anomaly": 188.6067,
        "meta_ephemeris_type": 0,
        "meta_classification_type": "U",
        "meta_norad_cat_id": 41038,
        "meta_element_set_no": 999,
        "meta_rev_at_epoch": 54430,
        "meta_bstar": 2.0992725e-05,
        "meta_mean_motion_dot": 1.16e-06,
        "meta_mean_motion_ddot": 0,
        "tle_line1": "1 41038U 15069A   25355.59163193  .00000116  00000+0  20993-4 0  9998",
        "tle_line2": "2 41038  98.0207  18.7917 0000552 171.5156 188.6067 14.82891427544303"
      },
      "geometry": {
        "type": "Point",
        "coordinates": [
          23.861367764176467,
          -31.064162324779932
        ]
      }
    },
    {
      "type": "Feature",
      "properties": {
        "norad_id": 41167,
        "name": "KENT RIDGE 1",
        "group": "resource",
        "lat": -2.922433945464431,
        "lon": -24.994162032570525,
        "alt_km": 496.05266217612916,
        "timestamp": "2025-12-21T18:54:58.150652+00:00",
        "meta_object_name": "KENT RIDGE 1",
        "meta_object_id": "2015-077B",
        "meta_epoch": "2025-12-21T14:55:58.846368",
        "meta_mean_motion": 15.21699214,
        "meta_eccentricity": 0.00085388,
        "meta_inclination": 14.9785,
        "meta_ra_of_asc_node": 145.2281,
        "meta_arg_of_pericenter": 256.3079,
        "meta_mean_anomaly": 103.6292,
        "meta_ephemeris_type": 0,
        "meta_classification_type": "U",
        "meta_norad_cat_id": 41167,
        "meta_element_set_no": 999,
        "meta_rev_at_epoch": 55399,
        "meta_bstar": 0.00013519952,
        "meta_mean_motion_dot": 3.907e-05,
        "meta_mean_motion_ddot": 0,
        "tle_line1": "1 41167U 15077B   25355.62220887  .00003907  00000+0  13520-3 0  9996",
        "tle_line2": "2 41167  14.9785 145.2281 0008538 256.3079 103.6292 15.21699214553998"
      },
      "geometry": {
        "type": "Point",
        "coordinates": [
          -24.994162032570525,
          -2.922433945464431
        ]
      }
    },
    {
      "type": "Feature",
      "properties": {
        "norad_id": 41194,
        "name": "GAOFEN-4",
        "group": "resource",
        "lat": 0.1417032414966071,
        "lon": 120.03004884494646,
        "alt_km": 35778.92556935946,
        "timestamp": "2025-12-21T18:54:58.150664+00:00",
        "meta_object_name": "GAOFEN-4",
        "meta_object_id": "2015-083A",
        "meta_epoch": "2025-12-19T15:27:26.627616",
        "meta_mean_motion": 1.00273138,
        "meta_eccentricity": 0.0002945,
        "meta_inclination": 0.1878,
        "meta_ra_of_asc_node": 81.7841,
        "meta_arg_of_pericenter": 93.4275,
        "meta_mean_anomaly": 250.8523,
        "meta_ephemeris_type": 0,
        "meta_classification_type": "U",
        "meta_norad_cat_id": 41194,
        "meta_element_set_no": 999,
        "meta_rev_at_epoch": 3672,
        "meta_bstar": 0,
        "meta_mean_motion_dot": -3.11e-06,
        "meta_mean_motion_ddot": 0,
        "tle_line1": "1 41194U 15083A   25353.64405819 -.00000311  00000+0  00000+0 0  9995",
        "tle_line2": "2 41194   0.1878  81.7841 0002945  93.4275 250.8523  1.00273138 36722"
      },
      "geometry": {
        "type": "Point",
        "coordinates": [
          120.03004884494646,
          0.1417032414966071
        ]
      }
    },
    {
      "type": "Feature",
      "properties": {
        "norad_id": 41240,
        "name": "JASON-3",
        "group": "resource",
        "lat": 43.630933296975186,
        "lon": -66.2792132816043,
        "alt_km": 1310.634300009081,
        "timestamp": "2025-12-21T18:54:58.150676+00:00",
        "meta_object_name": "JASON-3",
        "meta_object_id": "2016-002A",
        "meta_epoch": "2025-12-21T14:30:36.082656",
        "meta_mean_motion": 12.8762688,
        "meta_eccentricity": 0.00072405,
        "meta_inclination": 66.04,
        "meta_ra_of_asc_node": 139.1867,
        "meta_arg_of_pericenter": 271.3098,
        "meta_mean_anomaly": 88.7091,
        "meta_ephemeris_type": 0,
        "meta_classification_type": "U",
        "meta_norad_cat_id": 41240,
        "meta_element_set_no": 999,
        "meta_rev_at_epoch": 46438,
        "meta_bstar": -1.5867868e-05,
        "meta_mean_motion_dot": -6.6e-07,
        "meta_mean_motion_ddot": 0,
        "tle_line1": "1 41240U 16002A   25355.60458429 -.00000066  00000+0 -15868-4 0  9993",
        "tle_line2": "2 41240  66.0400 139.1867 0007240 271.3098  88.7091 12.87626880464383"
      },
      "geometry": {
        "type": "Point",
        "coordinates": [
          -66.2792132816043,
          43.630933296975186
        ]
      }
    },
    {
      "type": "Feature",
      "properties": {
        "norad_id": 41335,
        "name": "SENTINEL-3A",
        "group": "resource",
        "lat": 1.5225591690551474,
        "lon": 60.44303638733605,
        "alt_km": 805.4211681824954,
        "timestamp": "2025-12-21T18:54:58.150689+00:00",
        "meta_object_name": "SENTINEL-3A",
        "meta_object_id": "2016-011A",
        "meta_epoch": "2025-12-21T13:51:34.537248",
        "meta_mean_motion": 14.26733887,
        "meta_eccentricity": 8.961e-05,
        "meta_inclination": 98.6302,
        "meta_ra_of_asc_node": 60.4666,
        "meta_arg_of_pericenter": 94.6988,
        "meta_mean_anomaly": 265.4295,
        "meta_ephemeris_type": 0,
        "meta_classification_type": "U",
        "meta_norad_cat_id": 41335,
        "meta_element_set_no": 999,
        "meta_rev_at_epoch": 51273,
        "meta_bstar": 6.379166e-05,
        "meta_mean_motion_dot": 1.11e-06,
        "meta_mean_motion_ddot": 0,
        "tle_line1": "1 41335U 16011A   25355.57748307  .00000111  00000+0  63792-4 0  9999",
        "tle_line2": "2 41335  98.6302  60.4666 0000896  94.6988 265.4295 14.26733887512731"
      },
      "geometry": {
        "type": "Point",
        "coordinates": [
          60.44303638733605,
          1.5225591690551474
        ]
      }
    },
    {
      "type": "Feature",
      "properties": {
        "norad_id": 41556,
        "name": "ZIYUAN 3-02 (ZY 3-02)",
        "group": "resource",
        "lat": -51.21671377129779,
        "lon": 79.11711274892426,
        "alt_km": 510.0733037722475,
        "timestamp": "2025-12-21T18:54:58.150699+00:00",
        "meta_object_name": "ZIYUAN 3-02 (ZY 3-02)",
        "meta_object_id": "2016-033A",
        "meta_epoch": "2025-12-21T14:24:27.418176",
        "meta_mean_motion": 15.2117044,
        "meta_eccentricity": 0.00111334,
        "meta_inclination": 97.4035,
        "meta_ra_of_asc_node": 69.6198,
        "meta_arg_of_pericenter": 212.9668,
        "meta_mean_anomaly": 147.0875,
        "meta_ephemeris_type": 0,
        "meta_classification_type": "U",
        "meta_norad_cat_id": 41556,
        "meta_element_set_no": 999,
        "meta_rev_at_epoch": 53098,
        "meta_bstar": 0.00024173085,
        "meta_mean_motion_dot": 5.326e-05,
        "meta_mean_motion_ddot": 0,
        "tle_line1": "1 41556U 16033A   25355.60031734  .00005326  00000+0  24173-3 0  9993",
        "tle_line2": "2 41556  97.4035  69.6198 0011133 212.9668 147.0875 15.21170440530985"
      },
      "geometry": {
        "type": "Point",
        "coordinates": [
          79.11711274892426,
          -51.21671377129779
        ]
      }
    }
  ]
}